[{"OBJECT_NAME":"AMAZONIA 1","OBJECT_ID":"2021-015A","EPOCH":"2026-03-09T17:05:01.705920","MEAN_MOTION":14.40836291,"ECCENTRICITY":0.00039353,"INCLINATION":98.4264,"RA_OF_ASC_NODE":142.7385,"ARG_OF_PERICENTER":123.8493,"MEAN_ANOMALY":236.3071,"EPHEMERIS_TYPE":0,"CLASSIFICATION_TYPE":"U","NORAD_CAT_ID":47699,"ELEMENT_SET_NO":999,"REV_AT_EPOCH":26432,"BSTAR":0.00010973552,"MEAN_MOTION_DOT":3.08e-6,"MEAN_MOTION_DDOT":0},{"OBJECT_NAME":"UNKNOWN","OBJECT_ID":"","EPOCH":"2026-02-28T11:01:44.273280","MEAN_MOTION":12.92575059,"ECCENTRICITY":0.06927877,"INCLINATION":72.9891,"RA_OF_ASC_NODE":323.226,"ARG_OF_PERICENTER":252.3339,"MEAN_ANOMALY":100.0972,"EPHEMERIS_TYPE":0,"CLASSIFICATION_TYPE":"U","NORAD_CAT_ID":270181,"ELEMENT_SET_NO":999,"REV_AT_EPOCH":29386,"BSTAR":-0.00015416991,"MEAN_MOTION_DOT":-1.52e-6,"MEAN_MOTION_DDOT":0}]
